32263,GLOBALSTAR M067,2007,116.07,450.0,-,51.97,Inactive,1,LEO,Kazakhstan,Globalstar,Commercial,Communications,Soyuz,1 32263U 07048A   24010.33379986 -.00000102  00000+0 -34564-4 0  9990,2 32263  51.9728 128.7214 0000110  94.8847 282.0106 12.40636486744461,12.40636486,1.1e-05,LEO
32266,GLOBALSTAR M068,2007,114.03,-1.0,-,51.99,Inactive,0,LEO,Kazakhstan,Globalstar,Unknown,Unknown,Soyuz,1 32266U 07048D   24010.58122818 -.00000094  00000+0  56547-4 0  9994,2 32266  51.9887  98.3163 0001388  95.7370  13.2018 12.62775920751694,12.6277592,0.0001388,LEO
32264,GLOBALSTAR M070,2007,114.08,450.0,+,51.98,Active,1,LEO,Kazakhstan,Globalstar,Commercial,Communications,Soyuz,1 32264U 07048B   24011.16242767 -.00000050  00000+0  29731-3 0  9999,2 32264  51.9754 281.8049 0001091  49.2038 115.4756 12.62284396748594,12.62284396,0.0001091,LEO
32265,GLOBALSTAR M066,2007,114.08,450.0,+,51.97,Active,1,LEO,Kazakhstan,Globalstar,Commercial,Communications,Soyuz,1 32265U 07048C   24010.55743663 -.00000113  00000+0 -50020-4 0  9990,2 32265  51.9667 145.6677 0001660 135.0879 350.0355 12.62279331750746,12.62279331,0.000166,LEO
37188,GLOBALSTAR M079,2010,114.08,700.0,+,52.01,Active,1,LEO,Kazakhstan,Globalstar,Commercial,Communications,Soyuz,1 37188U 10054A   24011.18932958 -.00000064  00000+0  22164-3 0  9998,2 37188  52.0052 291.8775 0000519  51.9396 112.9529 12.62265460611089,12.6226546,5.19e-05,LEO
37189,GLOBALSTAR M074,2010,114.08,700.0,+,52.0,Active,1,LEO,Kazakhstan,Globalstar,Commercial,Communications,Soyuz,1 37189U 10054B   24010.09347986 -.00000071  00000+0  18110-3 0  9993,2 37189  52.0027 294.6176 0000738  54.8064  47.7250 12.62263930610877,12.6226393,7.38e-05,LEO
37191,GLOBALSTAR M077,2010,114.08,700.0,+,52.01,Active,1,LEO,Kazakhstan,Globalstar,Commercial,Communications,Soyuz,1 37191U 10054D   24010.97842031 -.00000052  00000+0  28940-3 0  9995,2 37191  52.0057 248.7548 0001038  64.2034  40.0288 12.62268638611814,12.62268638,0.0001038,LEO
